[
  {
    "OBJECT_NAME": "STARLINK-35064",
    "OBJECT_ID": "25200M",
    "EPOCH": "2025-11-11T08:00:03.000384",
    "MEAN_MOTION": 15.06506561,
    "ECCENTRICITY": 0.0001566,
    "INCLINATION": 97.6036,
    "RA_OF_ASC_NODE": 23.1081,
    "ARG_OF_PERICENTER": 90.0134,
    "MEAN_ANOMALY": 147.6984,
    "EPHEMERIS_TYPE": 0,
    "CLASSIFICATION_TYPE": "U",
    "NORAD_CAT_ID": 65531,
    "ELEMENT_SET_NO": 999,
    "REV_AT_EPOCH": 590,
    "BSTAR": 0.0,
    "MEAN_MOTION_DOT": -0.00049207,
    "MEAN_MOTION_DDOT": 0.0,
    "TLE_LINE1": "1 65531U 25200M   25315.33336806 -.00049207  00000+0 -33515-2 0  9999",
    "TLE_LINE2": "2 65531  97.6036  23.1081 0001566  90.0134 147.6984 15.06506561  5901",
    "COMMENT": "Grouped by shell and plane from TLE"
  },
  {
    "OBJECT_NAME": "STARLINK-35170",
    "OBJECT_ID": "25200N",
    "EPOCH": "2025-11-11T08:00:03.000384",
    "MEAN_MOTION": 15.06487734,
    "ECCENTRICITY": 0.0001885,
    "INCLINATION": 97.6034,
    "RA_OF_ASC_NODE": 23.1779,
    "ARG_OF_PERICENTER": 76.1324,
    "MEAN_ANOMALY": 320.885,
    "EPHEMERIS_TYPE": 0,
    "CLASSIFICATION_TYPE": "U",
    "NORAD_CAT_ID": 65532,
    "ELEMENT_SET_NO": 999,
    "REV_AT_EPOCH": 592,
    "BSTAR": 0.0,
    "MEAN_MOTION_DOT": -0.00054957,
    "MEAN_MOTION_DDOT": 0.0,
    "TLE_LINE1": "1 65532U 25200N   25315.33336806 -.00054957  00000+0 -37484-2 0  9997",
    "TLE_LINE2": "2 65532  97.6034  23.1779 0001885  76.1324 320.8850 15.06487734  5923",
    "COMMENT": "Grouped by shell and plane from TLE"
  },
  {
    "OBJECT_NAME": "STARLINK-35172",
    "OBJECT_ID": "25200P",
    "EPOCH": "2025-11-11T08:00:03.000384",
    "MEAN_MOTION": 15.06501418,
    "ECCENTRICITY": 0.0001503,
    "INCLINATION": 97.603,
    "RA_OF_ASC_NODE": 23.0794,
    "ARG_OF_PERICENTER": 96.7471,
    "MEAN_ANOMALY": 75.6434,
    "EPHEMERIS_TYPE": 0,
    "CLASSIFICATION_TYPE": "U",
    "NORAD_CAT_ID": 65533,
    "ELEMENT_SET_NO": 999,
    "REV_AT_EPOCH": 591,
    "BSTAR": 0.0,
    "MEAN_MOTION_DOT": -0.0004903,
    "MEAN_MOTION_DDOT": 0.0,
    "TLE_LINE1": "1 65533U 25200P   25315.33336806 -.00049030  00000+0 -33398-2 0  9994",
    "TLE_LINE2": "2 65533  97.6030  23.0794 0001503  96.7471  75.6434 15.06501418  5912",
    "COMMENT": "Grouped by shell and plane from TLE"
  },
  {
    "OBJECT_NAME": "STARLINK-35125",
    "OBJECT_ID": "25200Q",
    "EPOCH": "2025-11-11T04:19:31.176480",
    "MEAN_MOTION": 15.06436427,
    "ECCENTRICITY": 0.0002632,
    "INCLINATION": 97.604,
    "RA_OF_ASC_NODE": 22.904,
    "ARG_OF_PERICENTER": 61.212,
    "MEAN_ANOMALY": 298.9371,
    "EPHEMERIS_TYPE": 0,
    "CLASSIFICATION_TYPE": "U",
    "NORAD_CAT_ID": 65534,
    "ELEMENT_SET_NO": 999,
    "REV_AT_EPOCH": 1129,
    "BSTAR": 0.00020496000000000002,
    "MEAN_MOTION_DOT": 2.961e-05,
    "MEAN_MOTION_DDOT": 0.0,
    "TLE_LINE1": "1 65534U 25200Q   25315.18022195  .00002961  00000+0  20496-3 0  9997",
    "TLE_LINE2": "2 65534  97.6040  22.9040 0002632  61.2120 298.9371 15.06436427 11293",
    "COMMENT": "Grouped by shell and plane from TLE"
  },
  {
    "OBJECT_NAME": "STARLINK-35133",
    "OBJECT_ID": "25200R",
    "EPOCH": "2025-11-11T08:00:03.000384",
    "MEAN_MOTION": 15.06489676,
    "ECCENTRICITY": 0.0002189,
    "INCLINATION": 97.6032,
    "RA_OF_ASC_NODE": 23.169,
    "ARG_OF_PERICENTER": 71.0928,
    "MEAN_ANOMALY": 305.5597,
    "EPHEMERIS_TYPE": 0,
    "CLASSIFICATION_TYPE": "U",
    "NORAD_CAT_ID": 65535,
    "ELEMENT_SET_NO": 999,
    "REV_AT_EPOCH": 591,
    "BSTAR": 0.0,
    "MEAN_MOTION_DOT": -0.00053198,
    "MEAN_MOTION_DDOT": 0.0,
    "TLE_LINE1": "1 65535U 25200R   25315.33336806 -.00053198  00000+0 -36272-2 0  9990",
    "TLE_LINE2": "2 65535  97.6032  23.1690 0002189  71.0928 305.5597 15.06489676  5912",
    "COMMENT": "Grouped by shell and plane from TLE"
  },
  {
    "OBJECT_NAME": "STARLINK-35044",
    "OBJECT_ID": "25200S",
    "EPOCH": "2025-11-11T08:00:03.000384",
    "MEAN_MOTION": 15.06635245,
    "ECCENTRICITY": 0.0001843,
    "INCLINATION": 97.6045,
    "RA_OF_ASC_NODE": 23.1271,
    "ARG_OF_PERICENTER": 79.2419,
    "MEAN_ANOMALY": 201.65,
    "EPHEMERIS_TYPE": 0,
    "CLASSIFICATION_TYPE": "U",
    "NORAD_CAT_ID": 65536,
    "ELEMENT_SET_NO": 999,
    "REV_AT_EPOCH": 590,
    "BSTAR": 0.0,
    "MEAN_MOTION_DOT": -0.01203671,
    "MEAN_MOTION_DDOT": 0.0,
    "TLE_LINE1": "1 65536U 25200S   25315.33336806 -.01203671  00000+0 -88641-1 0  9991",
    "TLE_LINE2": "2 65536  97.6045  23.1271 0001843  79.2419 201.6500 15.06635245  5907",
    "COMMENT": "Grouped by shell and plane from TLE"
  },
  {
    "OBJECT_NAME": "STARLINK-35136",
    "OBJECT_ID": "25200T",
    "EPOCH": "2025-11-11T08:00:03.000384",
    "MEAN_MOTION": 15.06488373,
    "ECCENTRICITY": 0.0001184,
    "INCLINATION": 97.6027,
    "RA_OF_ASC_NODE": 23.0913,
    "ARG_OF_PERICENTER": 68.9751,
    "MEAN_ANOMALY": 130.5921,
    "EPHEMERIS_TYPE": 0,
    "CLASSIFICATION_TYPE": "U",
    "NORAD_CAT_ID": 65537,
    "ELEMENT_SET_NO": 999,
    "REV_AT_EPOCH": 586,
    "BSTAR": 0.0,
    "MEAN_MOTION_DOT": -0.00057062,
    "MEAN_MOTION_DDOT": 0.0,
    "TLE_LINE1": "1 65537U 25200T   25315.33336806 -.00057062  00000+0 -38934-2 0  9993",
    "TLE_LINE2": "2 65537  97.6027  23.0913 0001184  68.9751 130.5921 15.06488373  5862",
    "COMMENT": "Grouped by shell and plane from TLE"
  },
  {
    "OBJECT_NAME": "STARLINK-35144",
    "OBJECT_ID": "25200U",
    "EPOCH": "2025-11-11T08:00:03.000384",
    "MEAN_MOTION": 15.06007074,
    "ECCENTRICITY": 8.95e-05,
    "INCLINATION": 97.6032,
    "RA_OF_ASC_NODE": 23.1076,
    "ARG_OF_PERICENTER": 172.6507,
    "MEAN_ANOMALY": 63.7711,
    "EPHEMERIS_TYPE": 0,
    "CLASSIFICATION_TYPE": "U",
    "NORAD_CAT_ID": 65538,
    "ELEMENT_SET_NO": 999,
    "REV_AT_EPOCH": 585,
    "BSTAR": 0.0,
    "MEAN_MOTION_DOT": -0.00051833,
    "MEAN_MOTION_DDOT": 0.0,
    "TLE_LINE1": "1 65538U 25200U   25315.33336806 -.00051833  00000+0 -35798-2 0  9999",
    "TLE_LINE2": "2 65538  97.6032  23.1076 0000895 172.6507  63.7711 15.06007074  5858",
    "COMMENT": "Grouped by shell and plane from TLE"
  },
  {
    "OBJECT_NAME": "STARLINK-35110",
    "OBJECT_ID": "25200V",
    "EPOCH": "2025-11-11T08:00:03.000384",
    "MEAN_MOTION": 15.06496092,
    "ECCENTRICITY": 0.0001181,
    "INCLINATION": 97.6032,
    "RA_OF_ASC_NODE": 23.1913,
    "ARG_OF_PERICENTER": 94.3692,
    "MEAN_ANOMALY": 332.587,
    "EPHEMERIS_TYPE": 0,
    "CLASSIFICATION_TYPE": "U",
    "NORAD_CAT_ID": 65539,
    "ELEMENT_SET_NO": 999,
    "REV_AT_EPOCH": 587,
    "BSTAR": 0.0,
    "MEAN_MOTION_DOT": -0.00054562,
    "MEAN_MOTION_DDOT": 0.0,
    "TLE_LINE1": "1 65539U 25200V   25315.33336806 -.00054562  00000+0 -37206-2 0  9998",
    "TLE_LINE2": "2 65539  97.6032  23.1913 0001181  94.3692 332.5870 15.06496092  5870",
    "COMMENT": "Grouped by shell and plane from TLE"
  },
  {
    "OBJECT_NAME": "STARLINK-35052",
    "OBJECT_ID": "25200W",
    "EPOCH": "2025-11-11T08:00:03.000384",
    "MEAN_MOTION": 15.06496175,
    "ECCENTRICITY": 0.0002079,
    "INCLINATION": 97.604,
    "RA_OF_ASC_NODE": 23.1401,
    "ARG_OF_PERICENTER": 75.2951,
    "MEAN_ANOMALY": 234.3119,
    "EPHEMERIS_TYPE": 0,
    "CLASSIFICATION_TYPE": "U",
    "NORAD_CAT_ID": 65540,
    "ELEMENT_SET_NO": 999,
    "REV_AT_EPOCH": 575,
    "BSTAR": 0.0,
    "MEAN_MOTION_DOT": -0.00053701,
    "MEAN_MOTION_DDOT": 0.0,
    "TLE_LINE1": "1 65540U 25200W   25315.33336806 -.00053701  00000+0 -36612-2 0  9994",
    "TLE_LINE2": "2 65540  97.6040  23.1401 0002079  75.2951 234.3119 15.06496175  5750",
    "COMMENT": "Grouped by shell and plane from TLE"
  },
  {
    "OBJECT_NAME": "STARLINK-35087",
    "OBJECT_ID": "25200X",
    "EPOCH": "2025-11-11T08:00:03.000384",
    "MEAN_MOTION": 15.06500695,
    "ECCENTRICITY": 0.0001226,
    "INCLINATION": 97.6035,
    "RA_OF_ASC_NODE": 23.1391,
    "ARG_OF_PERICENTER": 83.3914,
    "MEAN_ANOMALY": 223.7676,
    "EPHEMERIS_TYPE": 0,
    "CLASSIFICATION_TYPE": "U",
    "NORAD_CAT_ID": 65541,
    "ELEMENT_SET_NO": 999,
    "REV_AT_EPOCH": 590,
    "BSTAR": 0.0,
    "MEAN_MOTION_DOT": -0.00043833,
    "MEAN_MOTION_DDOT": 0.0,
    "TLE_LINE1": "1 65541U 25200X   25315.33336806 -.00043833  00000+0 -29833-2 0  9997",
    "TLE_LINE2": "2 65541  97.6035  23.1391 0001226  83.3914 223.7676 15.06500695  5905",
    "COMMENT": "Grouped by shell and plane from TLE"
  },
  {
    "OBJECT_NAME": "STARLINK-35100",
    "OBJECT_ID": "25200Y",
    "EPOCH": "2025-11-11T04:09:42.122880",
    "MEAN_MOTION": 15.05708939,
    "ECCENTRICITY": 0.0001613,
    "INCLINATION": 97.6024,
    "RA_OF_ASC_NODE": 22.9127,
    "ARG_OF_PERICENTER": 102.4964,
    "MEAN_ANOMALY": 257.6443,
    "EPHEMERIS_TYPE": 0,
    "CLASSIFICATION_TYPE": "U",
    "NORAD_CAT_ID": 65542,
    "ELEMENT_SET_NO": 999,
    "REV_AT_EPOCH": 1129,
    "BSTAR": 0.0,
    "MEAN_MOTION_DOT": -0.0007522,
    "MEAN_MOTION_DDOT": 0.0,
    "TLE_LINE1": "1 65542U 25200Y   25315.17340420 -.00075220  00000+0 -52557-2 0  9991",
    "TLE_LINE2": "2 65542  97.6024  22.9127 0001613 102.4964 257.6443 15.05708939 11293",
    "COMMENT": "Grouped by shell and plane from TLE"
  },
  {
    "OBJECT_NAME": "STARLINK-35105",
    "OBJECT_ID": "25200Z",
    "EPOCH": "2025-11-11T08:00:03.000384",
    "MEAN_MOTION": 15.06583986,
    "ECCENTRICITY": 0.0001762,
    "INCLINATION": 97.6039,
    "RA_OF_ASC_NODE": 23.1667,
    "ARG_OF_PERICENTER": 83.2557,
    "MEAN_ANOMALY": 286.8937,
    "EPHEMERIS_TYPE": 0,
    "CLASSIFICATION_TYPE": "U",
    "NORAD_CAT_ID": 65543,
    "ELEMENT_SET_NO": 999,
    "REV_AT_EPOCH": 590,
    "BSTAR": 0.0,
    "MEAN_MOTION_DOT": -0.00342288,
    "MEAN_MOTION_DDOT": 0.0,
    "TLE_LINE1": "1 65543U 25200Z   25315.33336806 -.00342288  00000+0 -24256-1 0  9998",
    "TLE_LINE2": "2 65543  97.6039  23.1667 0001762  83.2557 286.8937 15.06583986  5908",
    "COMMENT": "Grouped by shell and plane from TLE"
  }
]